{
    "links": {
        "self": "http://www.neowsapp.com/rest/v1/neo/3137829?api_key=iIulBulltgU6a56xZRHN4H3l9WmuAYTsLGpBGhQ2"
    },
    "id": "3137829",
    "neo_reference_id": "3137829",
    "name": "(2002 SF)",
    "designation": "2002 SF",
    "nasa_jpl_url": "http://ssd.jpl.nasa.gov/sbdb.cgi?sstr=3137829",
    "absolute_magnitude_h": 20.2,
    "estimated_diameter": {
        "kilometers": {
            "estimated_diameter_min": 0.2424124811,
            "estimated_diameter_max": 0.5420507863
        },
        "meters": {
            "estimated_diameter_min": 242.4124811008,
            "estimated_diameter_max": 542.0507863358
        },
        "miles": {
            "estimated_diameter_min": 0.1506280858,
            "estimated_diameter_max": 0.3368146392
        },
        "feet": {
            "estimated_diameter_min": 795.3165644948,
            "estimated_diameter_max": 1778.3819018419
        }
    },
    "is_potentially_hazardous_asteroid": false,
    "close_approach_data": [
        {
            "close_approach_date": "2002-09-18",
            "close_approach_date_full": "2002-Sep-18 03:21",
            "epoch_date_close_approach": 1032319260000,
            "relative_velocity": {
                "kilometers_per_second": "2.3822025727",
                "kilometers_per_hour": "8575.9292615831",
                "miles_per_hour": "5328.7489347876"
            },
            "miss_distance": {
                "astronomical": "0.3024772484",
                "lunar": "117.6636496276",
                "kilometers": "45249952.084100908",
                "miles": "28117016.4216842104"
            },
            "orbiting_body": "Earth"
        }
    ],
    "orbital_data": {
        "orbit_id": "7",
        "orbit_determination_date": "2017-04-06 09:14:49",
        "first_observation_date": "2002-09-16",
        "last_observation_date": "2002-10-25",
        "data_arc_in_days": 39,
        "observations_used": 36,
        "orbit_uncertainty": "6",
        "minimum_orbit_intersection": ".300605",
        "jupiter_tisserand_invariant": "3.616",
        "epoch_osculation": "2459000.5",
        "eccentricity": ".3907408609635647",
        "semi_major_axis": "2.130026732358243",
        "inclination": "4.951046039989776",
        "ascending_node_longitude": "136.8186286933033",
        "orbital_period": "1135.470898147535",
        "perihelion_distance": "1.297738253081175",
        "perihelion_argument": "222.3699125119277",
        "aphelion_distance": "2.962315211635311",
        "perihelion_time": "2459355.677717069608",
        "mean_anomaly": "247.391232700316",
        "mean_motion": ".3170490768079766",
        "equinox": "J2000",
        "orbit_class": {
            "orbit_class_type": "AMO",
            "orbit_class_description": "Near-Earth asteroid orbits similar to that of 1221 Amor",
            "orbit_class_range": "1.017 AU < q (perihelion) < 1.3 AU"
        }
    },
    "is_sentry_object": false
}